[{"OBJECT_NAME":"FLOCK 4Q-4","OBJECT_ID":"2023-174BZ","EPOCH":"2026-03-09T22:56:42.943776","MEAN_MOTION":15.44282003,"ECCENTRICITY":0.0007719,"INCLINATION":97.385,"RA_OF_ASC_NODE":154.7858,"ARG_OF_PERICENTER":155.8923,"MEAN_ANOMALY":204.2688,"EPHEMERIS_TYPE":0,"CLASSIFICATION_TYPE":"U","NORAD_CAT_ID":58327,"ELEMENT_SET_NO":999,"REV_AT_EPOCH":13022,"BSTAR":0.00057134662,"MEAN_MOTION_DOT":0.00026281,"MEAN_MOTION_DDOT":0},{"OBJECT_NAME":"POLYTECH UNIVERSE-4","OBJECT_ID":"2024-199N","EPOCH":"2026-03-09T22:39:35.452512","MEAN_MOTION":15.41920317,"ECCENTRICITY":0.00080129,"INCLINATION":97.316,"RA_OF_ASC_NODE":301.6563,"ARG_OF_PERICENTER":282.4901,"MEAN_ANOMALY":77.5449,"EPHEMERIS_TYPE":0,"CLASSIFICATION_TYPE":"U","NORAD_CAT_ID":61747,"ELEMENT_SET_NO":999,"REV_AT_EPOCH":12205,"BSTAR":0.00052704604,"MEAN_MOTION_DOT":0.0002238,"MEAN_MOTION_DDOT":0}]
